162P/Siding Spring,e,27.5580,30.9386,357.1055,3.091325,0.1813373,0.58302722,311.2579,03/14.0/2020,2000,g  9.0,4.0
# From MPC102101
163P/NEAT,e,12.7079,102.0916,349.6830,3.770444,0.1346218,0.45191665,29.8599,03/14.0/2020,2000,g 14.5,4.0
# From MPC106349
164P/Christensen,e,16.2533,88.3056,325.8720,3.658727,0.1408345,0.53962719,91.9240,03/14.0/2020,2000,g 11.0,4.0
# From MPC 75721
165P/LINEAR,e,15.9001,0.7317,126.2631,17.90693,0.0130069,0.61485401,94.1279,03/14.0/2020,2000,g 11.5,2.0
# From MPC 75722
166P/NEAT,e,15.3605,64.5110,321.4772,13.83641,0.0191500,0.38172839,124.9359,03/14.0/2020,2000,g  5.5,4.0
# From MPC 75722
167P/CINEOS,e,19.1206,295.6577,344.0902,16.18124,0.0151421,0.27312301,104.3227,03/14.0/2020,2000,g  9.5,2.0
# From MPC102101
168P/Hergenrother,e,21.6117,355.4668,14.9920,3.581911,0.1453891,0.62063958,32.2531,03/14.0/2020,2000,g 15.5,4.0
# From MPEC 2015-M77
169P/NEAT,e,11.2950,176.0864,218.0746,2.601495,0.2348927,0.76793406,160.7966,03/14.0/2020,2000,g  9.0,4.0
# From MPC 89012
170P/Christensen,e,10.1249,142.9191,225.6599,4.198137,0.1145827,0.30333401,230.0617,03/14.0/2020,2000,g 12.0,4.0
# From MPC102102
171P/Spahr,e,21.9338,101.6963,347.1255,3.556870,0.1469272,0.50173212,62.4981,03/14.0/2020,2000,g 13.5,4.0
# From MPEC 2019-VB6
172P/Yeung,e,11.2339,30.8964,209.3517,4.210044,0.1140970,0.20625876,125.0709,03/14.0/2020,2000,g 13.0,4.0
# From MPEC 2019-VB6
173P/Mueller,e,16.4972,100.4010,29.3829,5.700170,0.0724223,0.26052352,313.3403,03/14.0/2020,2000,g  7.5,4.0
# From MPC 92985
174P/Echeclus,e,4.3431,173.2723,162.8905,10.70072,0.0281569,0.45694206,50.3215,03/14.0/2020,2000,g  9.4,2.0
# From MPC114608
175P/Hergenrother,e,6.0774,123.5308,56.2131,3.427917,0.1552954,0.43218893,25.6489,03/14.0/2020,2000,g 14.0,4.0
# From MPC 89015
176P/LINEAR,e,0.2347,345.8811,35.1674,3.193174,0.1727310,0.19293682,189.8136,03/14.0/2020,2000,g 15.1,2.0
# From MPC 75723
177P/Barnard,e,31.3369,272.3574,60.1618,24.37313,0.0081910,0.95504179,40.5128,03/14.0/2020,2000,g 15.0,4.0
# From MPC105242
178P/Hug-Bell,e,11.0897,102.8747,297.7821,3.630059,0.1425061,0.48174644,342.2431,03/14.0/2020,2000,g 13.5,4.0
# From MPC 75723
179P/Jedicke,e,19.8985,115.5250,296.4484,5.944299,0.0680069,0.30605316,305.3016,03/14.0/2020,2000,g  2.5,8.0
# From MPC100284
180P/NEAT,e,16.8684,84.5561,94.9048,3.860751,0.1299261,0.35346250,202.0444,03/14.0/2020,2000,g 11.0,4.0
# From MPC 89012
181P/Shoemaker-Levy,e,17.4853,35.4114,336.2586,3.870585,0.1294313,0.70031413,273.8045,03/14.0/2020,2000,g 11.5,4.0
# From MPEC 2014-J10
182P/LONEOS,e,16.2393,72.7511,53.7951,2.956860,0.1938465,0.66127884,206.8105,03/14.0/2020,2000,g 18.0,4.0
# From MPC110085
183P/Korlevic-Juric,e,18.6779,5.4616,163.4543,4.515301,0.1027245,0.13986247,86.3254,03/14.0/2020,2000,g 12.5,2.0
# From MPC105242
184P/Lovas,e,4.5723,173.2816,186.4171,3.795482,0.1332919,0.55132864,329.8534,03/14.0/2020,2000,g 13.5,4.0
# From MPC109593
185P/Petriew,e,13.9963,214.0964,181.8901,3.099734,0.1805998,0.69883623,140.2345,03/14.0/2020,2000,g 15.0,4.0
# From MPC100284
186P/Garradd,e,28.4740,326.8656,283.9997,5.012900,0.0878154,0.12439541,27.5575,03/14.0/2020,2000,g  7.5,4.0
# From MPC104795
187P/LINEAR,e,13.6348,109.9237,132.3095,4.575203,0.1007137,0.15257400,66.9696,03/14.0/2020,2000,g  9.0,4.0
# From MPC106349
188P/LINEAR-Mueller,e,10.5180,358.9560,26.6068,4.376951,0.1076333,0.41504542,120.6815,03/14.0/2020,2000,g 11.5,4.0
# From MPC106349
189P/NEAT,e,20.0739,281.7409,16.2470,2.947401,0.1947804,0.58866557,185.1611,03/14.0/2020,2000,g 19.0,4.0
# From MPC 75724
190P/Mueller,e,2.1739,335.5694,50.2964,4.236320,0.1130371,0.52061479,162.3996,03/14.0/2020,2000,g 13.0,4.0
# From MPC 92277
191P/McNaught,e,8.8451,98.2425,283.8763,3.641642,0.1418268,0.38701480,307.4391,03/14.0/2020,2000,g 13.0,4.0
# From MPC 75724
192P/Shoemaker-Levy,e,24.5295,51.6495,312.8938,6.478872,0.0597661,0.77264368,268.3625,03/14.0/2020,2000,g 15.0,4.0
# From MPC 92277
193P/LINEAR-NEAT,e,10.6869,335.1930,8.2699,3.575113,0.1458040,0.39397544,282.7512,03/14.0/2020,2000,g 14.0,4.0
# From MPC 98566
194P/LINEAR,e,11.1663,351.6659,130.7149,3.987511,0.1237802,0.57728083,182.3201,03/14.0/2020,2000,g 16.0,4.0
# From MPC 75724
195P/Hill,e,36.3417,243.0959,249.5123,6.497127,0.0595144,0.31335608,243.1009,03/14.0/2020,2000,g  8.5,4.0
# From MPC 92985
196P/Tichy,e,19.3042,24.2134,12.3404,3.797037,0.1332100,0.42871581,232.0674,03/14.0/2020,2000,g 13.5,4.0
# From MPC 94676
197P/LINEAR,e,25.5508,66.3947,188.7299,2.867170,0.2030130,0.62995972,157.3591,03/14.0/2020,2000,g 16.5,2.0
# From NK 1596
198P/ODAS,e,1.3385,358.2494,69.2767,3.601063,0.1442308,0.44311358,65.7953,03/14.0/2020,2000,g  9.0,4.0
# From MPC 75725
199P/Shoemaker,e,24.9357,92.4002,191.5508,5.899528,0.0687825,0.50602469,274.6076,03/14.0/2020,2000,g 10.0,4.0
# From MPC118098
200P/Larsen,e,12.1048,234.8038,133.9993,4.936461,0.0898629,0.33205236,20.6109,03/14.0/2020,2000,g  9.0,4.0
# From MPC 93588
201P/LONEOS,e,5.7393,20.2035,40.9776,3.363306,0.1597918,0.63816285,289.9955,03/14.0/2020,2000,g 14.0,4.0
# From MPC103849
202P/Scotti,e,2.0251,183.6781,273.3308,3.968728,0.1246600,0.29286939,172.7680,03/14.0/2020,2000,g 13.5,4.0
# From MPEC 2019-TG9
203P/Korlevic,e,2.9733,290.3491,154.8782,4.671052,0.0976297,0.31497653,0.8740,03/14.0/2020,2000,g 14.5,2.0
# From MPC 98566
204P/LINEAR-NEAT,e,6.6362,108.8364,354.8602,3.632559,0.1423591,0.48018239,220.3803,03/14.0/2020,2000,g 14.0,4.0
# From MPC 98566
205P/Giacobini,e,15.2994,179.5987,154.1790,3.543197,0.1477784,0.56772978,260.9060,03/14.0/2020,2000,g 13.0,4.0
# From MPC 75725
206P/Barnard-Boattini,e,33.6335,202.3887,189.4262,3.488359,0.1512768,0.55146439,306.2266,03/14.0/2020,2000,g 19.0,4.0
# From MPC 75725
207P/NEAT,e,10.1489,199.8420,271.7426,3.865426,0.1296904,0.75995730,175.4433,03/14.0/2020,2000,g 16.0,4.0
# From MPC101100
208P/McMillan,e,4.4087,36.3728,310.3821,4.047788,0.1210256,0.37311099,163.4641,03/14.0/2020,2000,g 12.5,4.0
# From MPC 90771
209P/LINEAR,e,21.2581,62.7674,152.4867,2.960575,0.1934818,0.67326599,53.2477,03/14.0/2020,2000,g 17.0,2.0
# From MPC105242
210P/Christensen,e,10.2619,93.8355,345.9097,3.165963,0.1749627,0.83322837,355.6393,03/14.0/2020,2000,g 13.5,4.0
# From MPC 96868
211P/Hill,e,18.9209,117.1375,4.1262,3.549488,0.1473858,0.34219010,222.1458,03/14.0/2020,2000,g 12.5,4.0
# From MPC104795
212P/NEAT,e,22.6632,98.7033,14.3945,3.885358,0.1286938,0.58792017,164.6906,03/14.0/2020,2000,g 17.0,2.0
# From MPC114608
213P/Van Ness,e,10.3815,311.3007,5.5959,3.348391,0.1608607,0.40800018,144.9690,03/14.0/2020,2000,g 10.5,4.0
# From MPC 92986
214P/LINEAR,e,15.1876,348.2652,190.2923,3.615596,0.1433621,0.48609498,227.2026,03/14.0/2020,2000,g 13.0,4.0
# From MPC118098
215P/NEAT,e,10.5813,56.6862,262.0528,4.328352,0.1094511,0.16717430,12.7895,03/14.0/2020,2000,g 11.0,4.0
# From MPC100284
216P/LINEAR,e,9.0503,359.8227,151.3837,3.870353,0.1294429,0.44544528,179.1662,03/14.0/2020,2000,g 13.0,4.0
# From MPC108598
217P/LINEAR,e,12.8634,125.4718,246.8598,3.952211,0.1254423,0.68810951,121.8393,03/14.0/2020,2000,g 12.0,4.0
# From MPC105242
218P/LINEAR,e,2.7253,175.9779,59.7726,3.094621,0.1810477,0.62192576,323.1087,03/14.0/2020,2000,g 16.0,4.0
# From MPC100284
219P/LINEAR,e,11.5290,231.0050,107.3492,3.651389,0.1412593,0.35337795,157.7680,03/14.0/2020,2000,g 11.0,4.0
# From MPC105242
220P/McNaught,e,8.1280,150.1113,180.5642,3.115177,0.1792586,0.50178971,311.2959,03/14.0/2020,2000,g 15.0,4.0
# From MPC 93589
221P/LINEAR,e,11.4263,229.7293,40.0214,3.458227,0.1532583,0.49281591,261.3165,03/14.0/2020,2000,g 14.5,4.0
# From MPC 92277
222P/LINEAR,e,5.0944,6.8031,346.2255,2.899408,0.1996366,0.71433852,56.4842,03/14.0/2020,2000,g 20.0,4.0
# From MPEC 2019-VB6
223P/Skiff,e,27.0147,346.7793,37.8272,4.159263,0.1161929,0.41561555,47.8395,03/14.0/2020,2000,g 12.0,4.0
# From MPC 75727
224P/LINEAR-NEAT,e,13.3351,40.3909,16.8213,3.435381,0.1547896,0.40910630,216.1157,03/14.0/2020,2000,g 15.5,4.0
# From MPC 75727
225P/LINEAR,e,21.3450,14.1822,3.8720,3.651347,0.1412617,0.63748668,184.4203,03/14.0/2020,2000,g 18.0,4.0
# From MPC106349
226P/Pigott-LINEAR-Kowalski,e,44.0053,54.0059,341.0633,3.768065,0.1347493,0.52812138,173.4317,03/14.0/2020,2000,g 12.5,4.0
# From MPC102956
227P/Catalina-LINEAR,e,6.5114,49.5517,90.0628,3.572883,0.1459405,0.50479390,145.1635,03/14.0/2020,2000,g 16.5,2.0
# From MPEC 2017-X08
228P/LINEAR,e,7.9096,30.9889,115.3034,4.174447,0.1155595,0.17693281,0.3800,03/14.0/2020,2000,g 14.5,2.0
# From MPC106349
229P/Gibbs,e,26.0825,157.8962,223.9981,3.932004,0.1264105,0.37635038,130.0070,03/14.0/2020,2000,g 13.0,4.0
# From MPC110497
230P/LINEAR,e,15.5145,107.0232,313.8190,3.442459,0.1543124,0.55052415,246.8625,03/14.0/2020,2000,g 13.0,4.0
# From MPC114608
231P/LINEAR-NEAT,e,12.3341,133.0270,42.8135,4.017486,0.1223975,0.24758715,33.4715,03/14.0/2020,2000,g 14.5,2.0
# From MPC112394
232P/Hill,e,14.6306,56.0233,53.5091,4.483544,0.1038178,0.33439173,35.5720,03/14.0/2020,2000,g 11.5,4.0
# From MPC 92986
233P/La Sagra,e,11.2842,74.9268,27.0752,3.030131,0.1868581,0.41171769,322.3094,03/14.0/2020,2000,g 15.0,4.0
# From MPC110497
234P/LINEAR,e,11.5226,179.5728,357.4246,3.803654,0.1328625,0.25398235,135.4440,03/14.0/2020,2000,g 12.0,4.0
# From MPC110497
235P/LINEAR,e,8.8827,204.0277,333.5861,3.987590,0.1237765,0.31891158,90.1314,03/14.0/2020,2000,g 12.0,4.0
# From MPC107688
236P/LINEAR,e,16.3337,245.6602,119.2015,3.731684,0.1367246,0.50829121,115.4912,03/14.0/2020,2000,g 14.0,4.0
# From MPC109593
237P/LINEAR,e,14.0222,245.4185,25.1596,3.512434,0.1497241,0.43474914,186.9421,03/14.0/2020,2000,g 14.5,2.0
# From MPC107688
238P/Read,e,1.2645,51.6430,324.7261,3.163134,0.1751974,0.25233119,217.1849,03/14.0/2020,2000,g 14.5,4.0
# From MPC112394
239P/LINEAR,e,11.3044,255.9111,220.4188,4.470919,0.1042579,0.63080968,44.7114,03/14.0/2020,2000,g 17.5,2.0
# From MPC109593
240P/NEAT,e,23.5047,74.9241,352.0236,3.868923,0.1295147,0.44869084,86.5635,03/14.0/2020,2000,g 11.0,4.0
# From MPC 75729
